[{"OBJECT_NAME":"KUIPER-00127","OBJECT_ID":"2025-228K","EPOCH":"2026-03-03T07:47:17.461824","MEAN_MOTION":14.76347939,"ECCENTRICITY":0.00014065,"INCLINATION":51.901,"RA_OF_ASC_NODE":20.0175,"ARG_OF_PERICENTER":171.8581,"MEAN_ANOMALY":188.2403,"EPHEMERIS_TYPE":0,"CLASSIFICATION_TYPE":"U","NORAD_CAT_ID":65956,"ELEMENT_SET_NO":999,"REV_AT_EPOCH":2241,"BSTAR":0.00063051272,"MEAN_MOTION_DOT":4.205e-5,"MEAN_MOTION_DDOT":0},{"OBJECT_NAME":"KUIPER-00128","OBJECT_ID":"2025-228L","EPOCH":"2026-03-03T19:52:27.161760","MEAN_MOTION":14.79843852,"ECCENTRICITY":8.17e-5,"INCLINATION":51.9026,"RA_OF_ASC_NODE":19.035,"ARG_OF_PERICENTER":98.514,"MEAN_ANOMALY":261.5915,"EPHEMERIS_TYPE":0,"CLASSIFICATION_TYPE":"U","NORAD_CAT_ID":65957,"ELEMENT_SET_NO":999,"REV_AT_EPOCH":2246,"BSTAR":0.00096624,"MEAN_MOTION_DOT":7.137e-5,"MEAN_MOTION_DDOT":0},{"OBJECT_NAME":"KUIPER-00129","OBJECT_ID":"2025-228M","EPOCH":"2026-03-03T02:59:29.915520","MEAN_MOTION":14.79937379,"ECCENTRICITY":0.00010031,"INCLINATION":51.9022,"RA_OF_ASC_NODE":17.1328,"ARG_OF_PERICENTER":84.9197,"MEAN_ANOMALY":275.188,"EPHEMERIS_TYPE":0,"CLASSIFICATION_TYPE":"U","NORAD_CAT_ID":65958,"ELEMENT_SET_NO":999,"REV_AT_EPOCH":2243,"BSTAR":0.00032028435,"MEAN_MOTION_DOT":2.221e-5,"MEAN_MOTION_DDOT":0},{"OBJECT_NAME":"KUIPER-00130","OBJECT_ID":"2025-228N","EPOCH":"2026-03-03T02:07:23.184192","MEAN_MOTION":14.79978214,"ECCENTRICITY":0.0001124,"INCLINATION":51.9039,"RA_OF_ASC_NODE":19.8005,"ARG_OF_PERICENTER":93.3998,"MEAN_ANOMALY":266.7093,"EPHEMERIS_TYPE":0,"CLASSIFICATION_TYPE":"U","NORAD_CAT_ID":65959,"ELEMENT_SET_NO":999,"REV_AT_EPOCH":1268,"BSTAR":0.00079583043,"MEAN_MOTION_DOT":5.857e-5,"MEAN_MOTION_DDOT":0},{"OBJECT_NAME":"KUIPER-00134","OBJECT_ID":"2025-228P","EPOCH":"2026-03-03T19:19:30.499104","MEAN_MOTION":15.38381201,"ECCENTRICITY":0.0003564,"INCLINATION":51.8767,"RA_OF_ASC_NODE":348.8789,"ARG_OF_PERICENTER":299.3451,"MEAN_ANOMALY":60.718,"EPHEMERIS_TYPE":0,"CLASSIFICATION_TYPE":"U","NORAD_CAT_ID":65960,"ELEMENT_SET_NO":999,"REV_AT_EPOCH":2288,"BSTAR":0.0015026,"MEAN_MOTION_DOT":0.00057823,"MEAN_MOTION_DDOT":0},{"OBJECT_NAME":"KUIPER-00135","OBJECT_ID":"2025-228Q","EPOCH":"2026-03-03T06:10:05.361600","MEAN_MOTION":14.79925586,"ECCENTRICITY":9.064e-5,"INCLINATION":51.9036,"RA_OF_ASC_NODE":19.1148,"ARG_OF_PERICENTER":79.6421,"MEAN_ANOMALY":280.4644,"EPHEMERIS_TYPE":0,"CLASSIFICATION_TYPE":"U","NORAD_CAT_ID":65961,"ELEMENT_SET_NO":999,"REV_AT_EPOCH":2241,"BSTAR":-0.00059257809,"MEAN_MOTION_DOT":-4.735e-5,"MEAN_MOTION_DDOT":0},{"OBJECT_NAME":"KUIPER-00136","OBJECT_ID":"2025-228R","EPOCH":"2026-03-03T02:10:36.120576","MEAN_MOTION":14.79843077,"ECCENTRICITY":0.00013824,"INCLINATION":51.9018,"RA_OF_ASC_NODE":17.3224,"ARG_OF_PERICENTER":95.3717,"MEAN_ANOMALY":264.7404,"EPHEMERIS_TYPE":0,"CLASSIFICATION_TYPE":"U","NORAD_CAT_ID":65962,"ELEMENT_SET_NO":999,"REV_AT_EPOCH":2242,"BSTAR":0.00083428759,"MEAN_MOTION_DOT":6.131e-5,"MEAN_MOTION_DDOT":0},{"OBJECT_NAME":"KUIPER-00137","OBJECT_ID":"2025-228S","EPOCH":"2026-03-03T20:06:07.153920","MEAN_MOTION":14.8310585,"ECCENTRICITY":7.47e-5,"INCLINATION":51.9033,"RA_OF_ASC_NODE":11.4952,"ARG_OF_PERICENTER":88.3264,"MEAN_ANOMALY":271.7785,"EPHEMERIS_TYPE":0,"CLASSIFICATION_TYPE":"U","NORAD_CAT_ID":65963,"ELEMENT_SET_NO":999,"REV_AT_EPOCH":2257,"BSTAR":0.00096954,"MEAN_MOTION_DOT":7.757e-5,"MEAN_MOTION_DDOT":0},{"OBJECT_NAME":"KUIPER-00138","OBJECT_ID":"2025-228T","EPOCH":"2026-03-03T01:29:56.848992","MEAN_MOTION":14.79937999,"ECCENTRICITY":8.734e-5,"INCLINATION":51.8998,"RA_OF_ASC_NODE":12.3968,"ARG_OF_PERICENTER":85.0417,"MEAN_ANOMALY":275.0645,"EPHEMERIS_TYPE":0,"CLASSIFICATION_TYPE":"U","NORAD_CAT_ID":65964,"ELEMENT_SET_NO":999,"REV_AT_EPOCH":2249,"BSTAR":-0.00013420245,"MEAN_MOTION_DOT":-1.244e-5,"MEAN_MOTION_DDOT":0},{"OBJECT_NAME":"KUIPER-00140","OBJECT_ID":"2025-228U","EPOCH":"2026-03-03T01:26:04.289568","MEAN_MOTION":14.79923925,"ECCENTRICITY":0.00010236,"INCLINATION":51.9005,"RA_OF_ASC_NODE":14.9919,"ARG_OF_PERICENTER":82.9053,"MEAN_ANOMALY":277.2025,"EPHEMERIS_TYPE":0,"CLASSIFICATION_TYPE":"U","NORAD_CAT_ID":65965,"ELEMENT_SET_NO":999,"REV_AT_EPOCH":2245,"BSTAR":0.00039237818,"MEAN_MOTION_DOT":2.771e-5,"MEAN_MOTION_DDOT":0},{"OBJECT_NAME":"KUIPER-00141","OBJECT_ID":"2025-228V","EPOCH":"2026-03-03T19:23:50.991648","MEAN_MOTION":14.79935208,"ECCENTRICITY":9.51e-5,"INCLINATION":51.9038,"RA_OF_ASC_NODE":6.6972,"ARG_OF_PERICENTER":37.4492,"MEAN_ANOMALY":322.6536,"EPHEMERIS_TYPE":0,"CLASSIFICATION_TYPE":"U","NORAD_CAT_ID":65966,"ELEMENT_SET_NO":999,"REV_AT_EPOCH":2263,"BSTAR":0.007148,"MEAN_MOTION_DOT":0.00054718,"MEAN_MOTION_DDOT":0},{"OBJECT_NAME":"KUIPER-00146","OBJECT_ID":"2025-228W","EPOCH":"2026-03-03T19:22:47.231904","MEAN_MOTION":14.76455042,"ECCENTRICITY":0.0001166,"INCLINATION":51.9044,"RA_OF_ASC_NODE":8.8795,"ARG_OF_PERICENTER":102.793,"MEAN_ANOMALY":257.3161,"EPHEMERIS_TYPE":0,"CLASSIFICATION_TYPE":"U","NORAD_CAT_ID":65967,"ELEMENT_SET_NO":999,"REV_AT_EPOCH":2260,"BSTAR":0.00068924,"MEAN_MOTION_DOT":4.629e-5,"MEAN_MOTION_DDOT":0},{"OBJECT_NAME":"KUIPER-00149","OBJECT_ID":"2025-228X","EPOCH":"2026-03-03T03:15:01.399968","MEAN_MOTION":14.79933686,"ECCENTRICITY":0.00015708,"INCLINATION":51.9032,"RA_OF_ASC_NODE":7.0836,"ARG_OF_PERICENTER":63.6344,"MEAN_ANOMALY":296.4779,"EPHEMERIS_TYPE":0,"CLASSIFICATION_TYPE":"U","NORAD_CAT_ID":65968,"ELEMENT_SET_NO":999,"REV_AT_EPOCH":2257,"BSTAR":0.00089156838,"MEAN_MOTION_DOT":6.582e-5,"MEAN_MOTION_DDOT":0},{"OBJECT_NAME":"KUIPER-00154","OBJECT_ID":"2025-228Y","EPOCH":"2026-03-03T05:44:40.767072","MEAN_MOTION":14.79945539,"ECCENTRICITY":5.567e-5,"INCLINATION":51.902,"RA_OF_ASC_NODE":4.1283,"ARG_OF_PERICENTER":127.2491,"MEAN_ANOMALY":232.8522,"EPHEMERIS_TYPE":0,"CLASSIFICATION_TYPE":"U","NORAD_CAT_ID":65969,"ELEMENT_SET_NO":999,"REV_AT_EPOCH":2262,"BSTAR":0.00031560446,"MEAN_MOTION_DOT":2.186e-5,"MEAN_MOTION_DDOT":0},{"OBJECT_NAME":"KUIPER-00157","OBJECT_ID":"2025-228Z","EPOCH":"2026-03-03T05:40:50.488608","MEAN_MOTION":14.79948403,"ECCENTRICITY":6.792e-5,"INCLINATION":51.9037,"RA_OF_ASC_NODE":6.7499,"ARG_OF_PERICENTER":48.2866,"MEAN_ANOMALY":311.8154,"EPHEMERIS_TYPE":0,"CLASSIFICATION_TYPE":"U","NORAD_CAT_ID":65970,"ELEMENT_SET_NO":999,"REV_AT_EPOCH":2258,"BSTAR":0.00089407886,"MEAN_MOTION_DOT":6.604e-5,"MEAN_MOTION_DDOT":0},{"OBJECT_NAME":"KUIPER-00144","OBJECT_ID":"2025-301A","EPOCH":"2026-03-03T06:52:54.162336","MEAN_MOTION":15.38123737,"ECCENTRICITY":0.00079589,"INCLINATION":51.8683,"RA_OF_ASC_NODE":96.0651,"ARG_OF_PERICENTER":8.6599,"MEAN_ANOMALY":351.4524,"EPHEMERIS_TYPE":0,"CLASSIFICATION_TYPE":"U","NORAD_CAT_ID":67133,"ELEMENT_SET_NO":999,"REV_AT_EPOCH":1275,"BSTAR":0.00099029218,"MEAN_MOTION_DOT":0.00037581,"MEAN_MOTION_DDOT":0},{"OBJECT_NAME":"KUIPER-00164","OBJECT_ID":"2025-301B","EPOCH":"2026-03-03T18:00:01.999296","MEAN_MOTION":15.19287358,"ECCENTRICITY":0.0003756,"INCLINATION":51.8783,"RA_OF_ASC_NODE":95.0569,"ARG_OF_PERICENTER":65.3375,"MEAN_ANOMALY":59.2829,"EPHEMERIS_TYPE":0,"CLASSIFICATION_TYPE":"U","NORAD_CAT_ID":67134,"ELEMENT_SET_NO":999,"REV_AT_EPOCH":557,"BSTAR":-0.047482,"MEAN_MOTION_DOT":-0.00939358,"MEAN_MOTION_DDOT":0}]
